FLOCK 4H-4              
1 66707U 25276AT  26068.76745488  .00008077  00000+0  39509-3 0  9999
2 66707  97.4291 144.0059 0004417   7.9405 352.1898 15.18459011 15326
FLOCK 4H-17             
1 66720U 25276BG  26068.50940711  .00016485  00000+0  77232-3 0  9999
2 66720  97.4298 143.9091 0002134 323.7123  36.3967 15.19779499 15292
